CCSDS_OEM_VERS = 1.0
CREATION_DATE  = 2017-05-11T11:58:10
ORIGINATOR     = GMAT USER

META_START
OBJECT_NAME          = MOPSSat_alt_35785_km_RAAN_270_082
OBJECT_ID            = SatId
CENTER_NAME          = Earth
REF_FRAME            = EME2000
TIME_SYSTEM          = UTC
START_TIME           = 2017-01-01T00:00:00.000
USEABLE_START_TIME   = 2017-01-01T00:00:00.000
USEABLE_STOP_TIME    = 2017-01-02T00:00:00.000
STOP_TIME            = 2017-01-02T00:00:00.000
INTERPOLATION        = Lagrange
INTERPOLATION_DEGREE = 7 
META_STOP


                                                                                   

2017-01-01T11:36:40.000   3.893289014945000e+03   4.240204035622130e+04  -8.478266349507803e-01  -3.031448966088563e+00   2.809293982377243e-01   7.359719768926693e-05
2017-01-01T11:36:50.000   3.862973521956698e+03   4.240483870352564e+04  -8.470902832389645e-01  -3.031649258399827e+00   2.787400288588966e-01   7.367313798197331e-05
2017-01-01T11:37:00.000   3.832656034145293e+03   4.240761515641103e+04  -8.463531722499056e-01  -3.031847985032957e+00   2.765505195552654e-01   7.374905445116916e-05
2017-01-01T11:37:10.000   3.802336567475425e+03   4.241036971345561e+04  -8.456153022295956e-01  -3.032045145891991e+00   2.743608714464027e-01   7.382494704013357e-05
2017-01-01T11:37:20.000   3.772015137297890e+03   4.241310237330462e+04  -8.448766734096301e-01  -3.032240740885717e+00   2.721710856075397e-01   7.390081569371079e-05
2017-01-01T11:37:30.000   3.741691759033821e+03   4.241581313460786e+04  -8.441372860238504e-01  -3.032434769923197e+00   2.699811631189767e-01   7.397666035657662e-05
2017-01-01T11:37:40.000   3.711366448020021e+03   4.241850199603416e+04  -8.433971403045926e-01  -3.032627232914813e+00   2.677911050549143e-01   7.405248097363370e-05
2017-01-01T11:37:50.000   3.681039219901445e+03   4.242116895623357e+04  -8.426562364921708e-01  -3.032818129769551e+00   2.656009125117981e-01   7.412827748900585e-05
2017-01-01T11:38:00.000   3.650710090339878e+03   4.242381401386638e+04  -8.419145748278658e-01  -3.033007460397083e+00   2.634105865872788e-01   7.420404984679088e-05
2017-01-01T11:38:10.000   3.620379075013815e+03   4.242643716760181e+04  -8.411721555538848e-01  -3.033195224707669e+00   2.612201283802053e-01   7.427979799105191e-05
2017-01-01T11:38:20.000   3.590046189910356e+03   4.242903841609578e+04  -8.404289789205982e-01  -3.033381422610570e+00   2.590295390117027e-01   7.435552186511236e-05
2017-01-01T11:38:30.000   3.559711450932135e+03   4.243161775802203e+04  -8.396850451768326e-01  -3.033566054016273e+00   2.568388195967874e-01   7.443122141251387e-05
2017-01-01T11:38:40.000   3.529374874055059e+03   4.243417519205928e+04  -8.389403545737518e-01  -3.033749118835576e+00   2.546479712557577e-01   7.450689657663072e-05
2017-01-01T11:38:50.000   3.499036474632253e+03   4.243671071695002e+04  -8.381949073477749e-01  -3.033930616983792e+00   2.524569950639267e-01   7.458254730238582e-05
2017-01-01T11:39:00.000   3.468696268091862e+03   4.243922433144132e+04  -8.374487037376965e-01  -3.034110548376508e+00   2.502658921020159e-01   7.465817353453028e-05
2017-01-01T11:39:10.000   3.438354269756914e+03   4.244171603430036e+04  -8.367017439802743e-01  -3.034288912930708e+00   2.480746634431465e-01   7.473377521808572e-05
2017-01-01T11:39:20.000   3.408010495329605e+03   4.244418582427223e+04  -8.359540283220711e-01  -3.034465710561742e+00   2.458833101878135e-01   7.480935229715431e-05
2017-01-01T11:39:30.000   3.377664960491677e+03   4.244663370011500e+04  -8.352055570096955e-01  -3.034640941185846e+00   2.436918334350264e-01   7.488490471589780e-05
2017-01-01T11:39:40.000   3.347317680993613e+03   4.244905966059195e+04  -8.344563302919774e-01  -3.034814604719576e+00   2.415002342887492e-01   7.496043241832134e-05
2017-01-01T11:39:50.000   3.316968672630486e+03   4.245146370447513e+04  -8.337063484194268e-01  -3.034986701080065e+00   2.393085138561578e-01   7.503593534831813e-05
2017-01-01T11:40:00.000   3.286617951211636e+03   4.245384583054632e+04  -8.329556116434377e-01  -3.035157230185101e+00   2.371166732454495e-01   7.511141344976003e-05
2017-01-01T11:40:10.000   3.256265532549720e+03   4.245620603759820e+04  -8.322041202160285e-01  -3.035326191953195e+00   2.349247135650527e-01   7.518686666651988e-05
2017-01-01T11:40:20.000   3.225911432352220e+03   4.245854432444347e+04  -8.314518743871757e-01  -3.035493586304247e+00   2.327326359157917e-01   7.526229494275495e-05
2017-01-01T11:40:30.000   3.195555666293731e+03   4.246086068990827e+04  -8.306988744065757e-01  -3.035659413159073e+00   2.305404413961072e-01   7.533769822271397e-05
2017-01-01T11:40:40.000   3.165198250015965e+03   4.246315513283246e+04  -8.299451205236507e-01  -3.035823672439414e+00   2.283481311020574e-01   7.541307645074113e-05
2017-01-01T11:40:50.000   3.134839199055309e+03   4.246542765207416e+04  -8.291906129857234e-01  -3.035986364068277e+00   2.261557061220854e-01   7.548842957144692e-05
2017-01-01T11:41:00.000   3.104478528951420e+03   4.246767824650222e+04  -8.284353520407333e-01  -3.036147487969386e+00   2.239631675448628e-01   7.556375752944669e-05
2017-01-01T11:41:10.000   3.074116255258191e+03   4.246990691499563e+04  -8.276793379375160e-01  -3.036307044067141e+00   2.217705164600809e-01   7.563906026933181e-05
2017-01-01T11:41:20.000   3.043752393573871e+03   4.247211365643982e+04  -8.269225709265072e-01  -3.036465032286356e+00   2.195777539606266e-01   7.571433773559620e-05
2017-01-01T11:41:30.000   3.013386959565456e+03   4.247429846972659e+04  -8.261650512604053e-01  -3.036621452552251e+00   2.173848811443433e-01   7.578958987257573e-05
2017-01-01T11:41:40.000   2.983019968879320e+03   4.247646135375993e+04  -8.254067791919201e-01  -3.036776304790869e+00   2.151918991075779e-01   7.586481662466813e-05
2017-01-01T11:41:50.000   2.952651437541504e+03   4.247860230742962e+04  -8.246477549838379e-01  -3.036929588927189e+00   2.129988089740861e-01   7.594001793534769e-05
2017-01-01T11:42:00.000   2.922281381472662e+03   4.248072132964361e+04  -8.238879788968417e-01  -3.037081304887436e+00   2.108056118600068e-01   7.601519374835965e-05
2017-01-01T11:42:10.000   2.891909816668418e+03   4.248281841931574e+04  -8.231274511940312e-01  -3.037231452598215e+00   2.086123088868847e-01   7.609034400727699e-05
2017-01-01T11:42:20.000   2.861536758500751e+03   4.248489357541428e+04  -8.223661721234372e-01  -3.037380031989979e+00   2.064189011312195e-01   7.616546865721788e-05
2017-01-01T11:42:30.000   2.831162222414808e+03   4.248694679691335e+04  -8.216041419354573e-01  -3.037527042993541e+00   2.042253896747882e-01   7.624056764313359e-05
2017-01-01T11:42:40.000   2.800786223771037e+03   4.248897808280428e+04  -8.208413608789181e-01  -3.037672485540910e+00   2.020317755932436e-01   7.631564091019470e-05
2017-01-01T11:42:50.000   2.770408778238383e+03   4.249098743206630e+04  -8.200778292108506e-01  -3.037816359563169e+00   1.998380599845094e-01   7.639068840283313e-05
2017-01-01T11:43:00.000   2.740029901502408e+03   4.249297484368920e+04  -8.193135471892614e-01  -3.037958664992115e+00   1.976442439477025e-01   7.646571006544926e-05
2017-01-01T11:43:10.000   2.709649609265212e+03   4.249494031667210e+04  -8.185485150730935e-01  -3.038099401760161e+00   1.954503285831271e-01   7.654070584241737e-05
2017-01-01T11:43:20.000   2.679267917537719e+03   4.249688385000746e+04  -8.177827331296782e-01  -3.038238569799193e+00   1.932563150133816e-01   7.661567567734774e-05
2017-01-01T11:43:30.000   2.648884842246040e+03   4.249880544270374e+04  -8.170162016247342e-01  -3.038376169042198e+00   1.910622043549332e-01   7.669061951407490e-05
2017-01-01T11:43:40.000   2.618500399386513e+03   4.250070509377617e+04  -8.162489208262977e-01  -3.038512199422594e+00   1.888679977293128e-01   7.676553729626869e-05
2017-01-01T11:43:50.000   2.588114604340020e+03   4.250258280228978e+04  -8.154808909874073e-01  -3.038646660877314e+00   1.866736962136007e-01   7.684042896914542e-05
2017-01-01T11:44:00.000   2.557727472557644e+03   4.250443856731596e+04  -8.147121123634101e-01  -3.038779553343704e+00   1.844793008899393e-01   7.691529447775653e-05
2017-01-01T11:44:10.000   2.527339019405660e+03   4.250627238794292e+04  -8.139425852080627e-01  -3.038910876760259e+00   1.822848128343401e-01   7.699013376737875e-05
2017-01-01T11:44:20.000   2.496949260558913e+03   4.250808426324871e+04  -8.131723097833945e-01  -3.039040631064701e+00   1.800902331450921e-01   7.706494678252093e-05
2017-01-01T11:44:30.000   2.466558211708812e+03   4.250987419232204e+04  -8.124012863524116e-01  -3.039168816195464e+00   1.778955629216730e-01   7.713973346766788e-05
2017-01-01T11:44:40.000   2.436165888563233e+03   4.251164217426108e+04  -8.116295151790597e-01  -3.039295432091613e+00   1.757008032647447e-01   7.721449376727119e-05
2017-01-01T11:44:50.000   2.405772307138930e+03   4.251338820815934e+04  -8.108569965357399e-01  -3.039420478691824e+00   1.735059552972670e-01   7.728922762505436e-05
2017-01-01T11:45:00.000   2.375377483367741e+03   4.251511229312584e+04  -8.100837306932227e-01  -3.039543955935841e+00   1.713110201360619e-01   7.736393498495737e-05
2017-01-01T11:45:10.000   2.344981433251686e+03   4.251681442827672e+04  -8.093097179246068e-01  -3.039665863763864e+00   1.691159989030134e-01   7.743861579076369e-05
2017-01-01T11:45:20.000   2.314584172177036e+03   4.251849461277389e+04  -8.085349584878594e-01  -3.039786202119325e+00   1.669208926755338e-01   7.751326998776549e-05
2017-01-01T11:45:30.000   2.284185715600217e+03   4.252015284578625e+04  -8.077594526432686e-01  -3.039904970946104e+00   1.647257025360953e-01   7.758789752109826e-05
2017-01-01T11:45:40.000   2.253786078892747e+03   4.252178912649880e+04  -8.069832006495127e-01  -3.040022170189186e+00   1.625304295610334e-01   7.766249833611507e-05
